CARTOSAT-2D             
1 41948U 17008A   23329.15456784  .00008444  00000+0  40466-3 0  9993
2 41948  97.4578  26.4831 0004840 292.1947  67.8774 15.19161013375611
LEMUR-2-RDEATON         
1 41995U 17008AZ  23329.12468579  .03525994  22911-5  16162-2 0  9990
2 41995  97.1611  35.7912 0005183 283.5580  76.5132 16.21922980378192
DIDO-2                  
1 42000U 17008BE  23328.72442385  .00038317  00000+0  70632-3 0  9997
2 42000  97.1806  22.9709 0005189 151.8755 208.2777 15.49030784376700
PEASSS                  
1 42015U 17008BV  23329.17915890  .01944142  37634-2  16610-2 0  9993
2 42015  97.1615  36.5439 0003682 286.6362  73.4521 16.14466807378075
SENTINEL-2B             
1 42063U 17013A   23329.17249308  .00000300  00000+0  13111-3 0  9992
2 42063  98.5713  41.3662 0001126  90.8472 269.2839 14.30810449350946
ECHOSTAR 23             
1 42070U 17014A   23327.92363926 -.00000050  00000+0  00000+0 0  9997
2 42070   0.0167 307.8939 0002353 294.9080  42.4297  1.00269874 24532
WGS F9 (USA 275)        
1 42075U 17016A   23328.87444417 -.00000088  00000+0  00000+0 0  9995
2 42075   0.0141 284.1661 0000530 320.8882 121.2934  1.00269825 24510
SES-10                  
1 42432U 17017A   23328.72012264 -.00000264  00000+0  00000+0 0  9994
2 42432   0.0453  91.4492 0002952 163.1357   1.1930  1.00271998 24368
CHINASAT 16 (SJ-13)     
1 42662U 17018A   23329.18418560 -.00000344  00000+0  00000+0 0  9999
2 42662   0.0633  97.1901 0005004 176.1020 327.4074  1.00273410 24367
KOREASAT 7              
1 42691U 17023A   23329.06091022 -.00000354  00000+0  00000+0 0  9995
2 42691   0.0311  15.3736 0002021 216.9450 329.2814  1.00273500 24065
SGDC                    
1 42692U 17023B   23328.03357696 -.00000242  00000+0  00000+0 0  9990
2 42692   0.0405  94.0335 0002791 162.2481 103.7104  1.00270307 24036
GSAT-9                  
1 42695U 17024A   23328.89619984 -.00000278  00000+0  00000+0 0  9998
2 42695   0.0537 261.7074 0002764 332.7860 249.0605  1.00267785 23937
INMARSAT 5-F4           
1 42698U 17025A   23329.10296583  .00000084  00000+0  00000+0 0  9997
2 42698   0.0148 296.2831 0000200  17.2913 203.7878  1.00269846 23882
SES-15                  
1 42709U 17026A   23328.70787543  .00000068  00000+0  00000+0 0  9999
2 42709   0.0359  45.0539 0000447 194.9343 309.1060  1.00267142 24766
COSMOS 2518             
1 42719U 17027A   23325.91750782  .00000198  00000+0  00000+0 0  9990
2 42719  63.1753  16.2195 7259392 269.1898  15.0919  2.00594062 47569
QZS-2 (MICHIBIKI-2)     
1 42738U 17028A   23328.68243870 -.00000219  00000+0  00000+0 0  9999
2 42738  40.9120 256.7044 0762366 269.2109 282.9365  1.00290875 23753
VIASAT-2                
1 42740U 17029A   23328.86287014 -.00000257  00000+0  00000+0 0  9993
2 42740   0.0149 285.1643 0001208  94.7502 284.3723  1.00272515 23793
