[{"OBJECT_NAME":"CARTOSAT-2D","OBJECT_ID":"2017-008A","EPOCH":"2023-11-25T03:42:34.661376","MEAN_MOTION":15.19161013,"ECCENTRICITY":0.000484,"INCLINATION":97.4578,"RA_OF_ASC_NODE":26.4831,"ARG_OF_PERICENTER":292.1947,"MEAN_ANOMALY":67.8774,"EPHEMERIS_TYPE":0,"CLASSIFICATION_TYPE":"U","NORAD_CAT_ID":41948,"ELEMENT_SET_NO":999,"REV_AT_EPOCH":37561,"BSTAR":0.00040466,"MEAN_MOTION_DOT":8.444e-5,"MEAN_MOTION_DDOT":0},{"OBJECT_NAME":"LEMUR-2-RDEATON","OBJECT_ID":"2017-008AZ","EPOCH":"2023-11-25T02:59:32.852256","MEAN_MOTION":16.2192298,"ECCENTRICITY":0.0005183,"INCLINATION":97.1611,"RA_OF_ASC_NODE":35.7912,"ARG_OF_PERICENTER":283.558,"MEAN_ANOMALY":76.5132,"EPHEMERIS_TYPE":0,"CLASSIFICATION_TYPE":"U","NORAD_CAT_ID":41995,"ELEMENT_SET_NO":999,"REV_AT_EPOCH":37819,"BSTAR":0.0016162,"MEAN_MOTION_DOT":0.03525994,"MEAN_MOTION_DDOT":2.2911e-6},{"OBJECT_NAME":"DIDO-2","OBJECT_ID":"2017-008BE","EPOCH":"2023-11-24T17:23:10.220640","MEAN_MOTION":15.49030784,"ECCENTRICITY":0.0005189,"INCLINATION":97.1806,"RA_OF_ASC_NODE":22.9709,"ARG_OF_PERICENTER":151.8755,"MEAN_ANOMALY":208.2777,"EPHEMERIS_TYPE":0,"CLASSIFICATION_TYPE":"U","NORAD_CAT_ID":42000,"ELEMENT_SET_NO":999,"REV_AT_EPOCH":37670,"BSTAR":0.00070632,"MEAN_MOTION_DOT":0.00038317,"MEAN_MOTION_DDOT":0},{"OBJECT_NAME":"PEASSS","OBJECT_ID":"2017-008BV","EPOCH":"2023-11-25T04:17:59.328960","MEAN_MOTION":16.14466807,"ECCENTRICITY":0.0003682,"INCLINATION":97.1615,"RA_OF_ASC_NODE":36.5439,"ARG_OF_PERICENTER":286.6362,"MEAN_ANOMALY":73.4521,"EPHEMERIS_TYPE":0,"CLASSIFICATION_TYPE":"U","NORAD_CAT_ID":42015,"ELEMENT_SET_NO":999,"REV_AT_EPOCH":37807,"BSTAR":0.001661,"MEAN_MOTION_DOT":0.01944142,"MEAN_MOTION_DDOT":0.0037634},{"OBJECT_NAME":"SENTINEL-2B","OBJECT_ID":"2017-013A","EPOCH":"2023-11-25T04:08:23.402112","MEAN_MOTION":14.30810449,"ECCENTRICITY":0.0001126,"INCLINATION":98.5713,"RA_OF_ASC_NODE":41.3662,"ARG_OF_PERICENTER":90.8472,"MEAN_ANOMALY":269.2839,"EPHEMERIS_TYPE":0,"CLASSIFICATION_TYPE":"U","NORAD_CAT_ID":42063,"ELEMENT_SET_NO":999,"REV_AT_EPOCH":35094,"BSTAR":0.00013111,"MEAN_MOTION_DOT":3.0e-6,"MEAN_MOTION_DDOT":0},{"OBJECT_NAME":"ECHOSTAR 23","OBJECT_ID":"2017-014A","EPOCH":"2023-11-23T22:10:02.432064","MEAN_MOTION":1.00269874,"ECCENTRICITY":0.0002353,"INCLINATION":0.0167,"RA_OF_ASC_NODE":307.8939,"ARG_OF_PERICENTER":294.908,"MEAN_ANOMALY":42.4297,"EPHEMERIS_TYPE":0,"CLASSIFICATION_TYPE":"U","NORAD_CAT_ID":42070,"ELEMENT_SET_NO":999,"REV_AT_EPOCH":2453,"BSTAR":0,"MEAN_MOTION_DOT":-5.0e-7,"MEAN_MOTION_DDOT":0},{"OBJECT_NAME":"WGS F9 (USA 275)","OBJECT_ID":"2017-016A","EPOCH":"2023-11-24T20:59:11.976288","MEAN_MOTION":1.00269825,"ECCENTRICITY":5.3e-5,"INCLINATION":0.0141,"RA_OF_ASC_NODE":284.1661,"ARG_OF_PERICENTER":320.8882,"MEAN_ANOMALY":121.2934,"EPHEMERIS_TYPE":0,"CLASSIFICATION_TYPE":"U","NORAD_CAT_ID":42075,"ELEMENT_SET_NO":999,"REV_AT_EPOCH":2451,"BSTAR":0,"MEAN_MOTION_DOT":-8.8e-7,"MEAN_MOTION_DDOT":0},{"OBJECT_NAME":"SES-10","OBJECT_ID":"2017-017A","EPOCH":"2023-11-24T17:16:58.596096","MEAN_MOTION":1.00271998,"ECCENTRICITY":0.0002952,"INCLINATION":0.0453,"RA_OF_ASC_NODE":91.4492,"ARG_OF_PERICENTER":163.1357,"MEAN_ANOMALY":1.193,"EPHEMERIS_TYPE":0,"CLASSIFICATION_TYPE":"U","NORAD_CAT_ID":42432,"ELEMENT_SET_NO":999,"REV_AT_EPOCH":2436,"BSTAR":0,"MEAN_MOTION_DOT":-2.64e-6,"MEAN_MOTION_DDOT":0},{"OBJECT_NAME":"CHINASAT 16 (SJ-13)","OBJECT_ID":"2017-018A","EPOCH":"2023-11-25T04:25:13.635840","MEAN_MOTION":1.0027341,"ECCENTRICITY":0.0005004,"INCLINATION":0.0633,"RA_OF_ASC_NODE":97.1901,"ARG_OF_PERICENTER":176.102,"MEAN_ANOMALY":327.4074,"EPHEMERIS_TYPE":0,"CLASSIFICATION_TYPE":"U","NORAD_CAT_ID":42662,"ELEMENT_SET_NO":999,"REV_AT_EPOCH":2436,"BSTAR":0,"MEAN_MOTION_DOT":-3.44e-6,"MEAN_MOTION_DDOT":0},{"OBJECT_NAME":"KOREASAT 7","OBJECT_ID":"2017-023A","EPOCH":"2023-11-25T01:27:42.643008","MEAN_MOTION":1.002735,"ECCENTRICITY":0.0002021,"INCLINATION":0.0311,"RA_OF_ASC_NODE":15.3736,"ARG_OF_PERICENTER":216.945,"MEAN_ANOMALY":329.2814,"EPHEMERIS_TYPE":0,"CLASSIFICATION_TYPE":"U","NORAD_CAT_ID":42691,"ELEMENT_SET_NO":999,"REV_AT_EPOCH":2406,"BSTAR":0,"MEAN_MOTION_DOT":-3.54e-6,"MEAN_MOTION_DDOT":0},{"OBJECT_NAME":"SGDC","OBJECT_ID":"2017-023B","EPOCH":"2023-11-24T00:48:21.049344","MEAN_MOTION":1.00270307,"ECCENTRICITY":0.0002791,"INCLINATION":0.0405,"RA_OF_ASC_NODE":94.0335,"ARG_OF_PERICENTER":162.2481,"MEAN_ANOMALY":103.7104,"EPHEMERIS_TYPE":0,"CLASSIFICATION_TYPE":"U","NORAD_CAT_ID":42692,"ELEMENT_SET_NO":999,"REV_AT_EPOCH":2403,"BSTAR":0,"MEAN_MOTION_DOT":-2.42e-6,"MEAN_MOTION_DDOT":0},{"OBJECT_NAME":"GSAT-9","OBJECT_ID":"2017-024A","EPOCH":"2023-11-24T21:30:31.666176","MEAN_MOTION":1.00267785,"ECCENTRICITY":0.0002764,"INCLINATION":0.0537,"RA_OF_ASC_NODE":261.7074,"ARG_OF_PERICENTER":332.786,"MEAN_ANOMALY":249.0605,"EPHEMERIS_TYPE":0,"CLASSIFICATION_TYPE":"U","NORAD_CAT_ID":42695,"ELEMENT_SET_NO":999,"REV_AT_EPOCH":2393,"BSTAR":0,"MEAN_MOTION_DOT":-2.78e-6,"MEAN_MOTION_DDOT":0},{"OBJECT_NAME":"INMARSAT 5-F4","OBJECT_ID":"2017-025A","EPOCH":"2023-11-25T02:28:16.247712","MEAN_MOTION":1.00269846,"ECCENTRICITY":2.0e-5,"INCLINATION":0.0148,"RA_OF_ASC_NODE":296.2831,"ARG_OF_PERICENTER":17.2913,"MEAN_ANOMALY":203.7878,"EPHEMERIS_TYPE":0,"CLASSIFICATION_TYPE":"U","NORAD_CAT_ID":42698,"ELEMENT_SET_NO":999,"REV_AT_EPOCH":2388,"BSTAR":0,"MEAN_MOTION_DOT":8.4e-7,"MEAN_MOTION_DDOT":0},{"OBJECT_NAME":"SES-15","OBJECT_ID":"2017-026A","EPOCH":"2023-11-24T16:59:20.437152","MEAN_MOTION":1.00267142,"ECCENTRICITY":4.47e-5,"INCLINATION":0.0359,"RA_OF_ASC_NODE":45.0539,"ARG_OF_PERICENTER":194.9343,"MEAN_ANOMALY":309.106,"EPHEMERIS_TYPE":0,"CLASSIFICATION_TYPE":"U","NORAD_CAT_ID":42709,"ELEMENT_SET_NO":999,"REV_AT_EPOCH":2476,"BSTAR":0,"MEAN_MOTION_DOT":6.8e-7,"MEAN_MOTION_DDOT":0},{"OBJECT_NAME":"COSMOS 2518","OBJECT_ID":"2017-027A","EPOCH":"2023-11-21T22:01:12.675648","MEAN_MOTION":2.00594062,"ECCENTRICITY":0.7259392,"INCLINATION":63.1753,"RA_OF_ASC_NODE":16.2195,"ARG_OF_PERICENTER":269.1898,"MEAN_ANOMALY":15.0919,"EPHEMERIS_TYPE":0,"CLASSIFICATION_TYPE":"U","NORAD_CAT_ID":42719,"ELEMENT_SET_NO":999,"REV_AT_EPOCH":4756,"BSTAR":0,"MEAN_MOTION_DOT":1.98e-6,"MEAN_MOTION_DDOT":0},{"OBJECT_NAME":"QZS-2 (MICHIBIKI-2)","OBJECT_ID":"2017-028A","EPOCH":"2023-11-24T16:22:42.703680","MEAN_MOTION":1.00290875,"ECCENTRICITY":0.0762366,"INCLINATION":40.912,"RA_OF_ASC_NODE":256.7044,"ARG_OF_PERICENTER":269.2109,"MEAN_ANOMALY":282.9365,"EPHEMERIS_TYPE":0,"CLASSIFICATION_TYPE":"U","NORAD_CAT_ID":42738,"ELEMENT_SET_NO":999,"REV_AT_EPOCH":2375,"BSTAR":0,"MEAN_MOTION_DOT":-2.19e-6,"MEAN_MOTION_DDOT":0},{"OBJECT_NAME":"VIASAT-2","OBJECT_ID":"2017-029A","EPOCH":"2023-11-24T20:42:31.980096","MEAN_MOTION":1.00272515,"ECCENTRICITY":0.0001208,"INCLINATION":0.0149,"RA_OF_ASC_NODE":285.1643,"ARG_OF_PERICENTER":94.7502,"MEAN_ANOMALY":284.3723,"EPHEMERIS_TYPE":0,"CLASSIFICATION_TYPE":"U","NORAD_CAT_ID":42740,"ELEMENT_SET_NO":999,"REV_AT_EPOCH":2379,"BSTAR":0,"MEAN_MOTION_DOT":-2.57e-6,"MEAN_MOTION_DDOT":0}]
